{
"type": "FeatureCollection",
"name": "demanda",
"crs": { "type": "name", "properties": { "name": "urn:ogc:def:crs:OGC:1.3:CRS84" } },
"features": [
{ "type": "Feature", "properties": { "id_demanda": "REC", "nome": "Recife", "demanda_mw": 1200 }, "geometry": { "type": "Point", "coordinates": [ -34.88, -8.05 ] } },
{ "type": "Feature", "properties": { "id_demanda": "BSB", "nome": "Brasília", "demanda_mw": 1800 }, "geometry": { "type": "Point", "coordinates": [ -47.88, -15.79 ] } },
{ "type": "Feature", "properties": { "id_demanda": "SP", "nome": "São Paulo", "demanda_mw": 8500 }, "geometry": { "type": "Point", "coordinates": [ -46.63, -23.55 ] } },
{ "type": "Feature", "properties": { "id_demanda": "POA", "nome": "Porto Alegre", "demanda_mw": 2300 }, "geometry": { "type": "Point", "coordinates": [ -51.23, -30.03 ] } }
]
}
