{
"type": "FeatureCollection",
"name": "linhas",
"crs": { "type": "name", "properties": { "name": "urn:ogc:def:crs:OGC:1.3:CRS84" } },
"features": [
{ "type": "Feature", "properties": { "id_linha": "LT-01", "tensao_kv": 500 }, "geometry": { "type": "LineString", "coordinates": [ [ -38.0, -8.0 ], [ -52.0, -15.0 ] ] } },
{ "type": "Feature", "properties": { "id_linha": "LT-02", "tensao_kv": 500 }, "geometry": { "type": "LineString", "coordinates": [ [ -52.0, -15.0 ], [ -44.0, -22.0 ] ] } },
{ "type": "Feature", "properties": { "id_linha": "LT-03", "tensao_kv": 230 }, "geometry": { "type": "LineString", "coordinates": [ [ -44.0, -22.0 ], [ -51.0, -29.0 ] ] } }
]
}
