{
"type": "FeatureCollection",
"name": "subestacoes",
"crs": { "type": "name", "properties": { "name": "urn:ogc:def:crs:OGC:1.3:CRS84" } },
"features": [
{ "type": "Feature", "properties": { "id_sub": "SE-NE-01", "nome": "SE Nordeste", "tensao_kv": 500 }, "geometry": { "type": "Point", "coordinates": [ -38.0, -8.0 ] } },
{ "type": "Feature", "properties": { "id_sub": "SE-CO-01", "nome": "SE Centro-Oeste", "tensao_kv": 500 }, "geometry": { "type": "Point", "coordinates": [ -52.0, -15.0 ] } },
{ "type": "Feature", "properties": { "id_sub": "SE-SE-01", "nome": "SE Sudeste", "tensao_kv": 345 }, "geometry": { "type": "Point", "coordinates": [ -44.0, -22.0 ] } },
{ "type": "Feature", "properties": { "id_sub": "SE-S-01", "nome": "SE Sul", "tensao_kv": 230 }, "geometry": { "type": "Point", "coordinates": [ -51.0, -29.0 ] } }
]
}
