{
"type": "FeatureCollection",
"name": "restricoes",
"crs": { "type": "name", "properties": { "name": "urn:ogc:def:crs:OGC:1.3:CRS84" } },
"features": [
{ "type": "Feature", "properties": { "id": 1, "tipo": "Unidade de conservação" }, "geometry": { "type": "Polygon", "coordinates": [ [ [ -45.0, -12.0 ], [ -42.0, -12.0 ], [ -42.0, -9.0 ], [ -45.0, -9.0 ], [ -45.0, -12.0 ] ] ] } },
{ "type": "Feature", "properties": { "id": 2, "tipo": "Área sensível" }, "geometry": { "type": "Polygon", "coordinates": [ [ [ -50.0, -24.0 ], [ -47.0, -24.0 ], [ -47.0, -21.0 ], [ -50.0, -21.0 ], [ -50.0, -24.0 ] ] ] } }
]
}
